{
  "type": "FeatureCollection",
  "features": [
    {
      "type": "Feature",
      "properties": {
        "norad_id": 66656,
        "name": "2025-274G",
        "group": "last-30-days",
        "lat": 81.1808979650646,
        "lon": 149.92048828438212,
        "alt_km": 592.2359619158178,
        "timestamp": "2025-12-07T09:35:08.571902+00:00",
        "meta_object_name": "2025-274G",
        "meta_object_id": "2025-274G",
        "meta_epoch": "2025-12-06T18:40:49.621440",
        "meta_mean_motion": 14.92219802,
        "meta_eccentricity": 0.00124648,
        "meta_inclination": 97.7391,
        "meta_ra_of_asc_node": 268.0842,
        "meta_arg_of_pericenter": 279.917,
        "meta_mean_anomaly": 80.0642,
        "meta_ephemeris_type": 0,
        "meta_classification_type": "U",
        "meta_norad_cat_id": 66656,
        "meta_element_set_no": 999,
        "meta_rev_at_epoch": 151,
        "meta_bstar": 0.00049696804,
        "meta_mean_motion_dot": 5.017e-05,
        "meta_mean_motion_ddot": 0,
        "tle_line1": "1 66656U 25274G   25340.77835210  .00005017  00000+0  49697-3 0  9996",
        "tle_line2": "2 66656  97.7391 268.0842 0012464 279.9170  80.0642 14.92219802  1514"
      },
      "geometry": {
        "type": "Point",
        "coordinates": [
          149.92048828438212,
          81.1808979650646
        ]
      }
    },
    {
      "type": "Feature",
      "properties": {
        "norad_id": 66657,
        "name": "SPIRONE",
        "group": "last-30-days",
        "lat": 76.43986822219567,
        "lon": 123.01830485313761,
        "alt_km": 590.5830570593298,
        "timestamp": "2025-12-07T09:35:08.571913+00:00",
        "meta_object_name": "SPIRONE",
        "meta_object_id": "2025-274H",
        "meta_epoch": "2025-12-06T18:39:05.607072",
        "meta_mean_motion": 14.92399421,
        "meta_eccentricity": 0.00109595,
        "meta_inclination": 97.7389,
        "meta_ra_of_asc_node": 268.0859,
        "meta_arg_of_pericenter": 298.7939,
        "meta_mean_anomaly": 61.2179,
        "meta_ephemeris_type": 0,
        "meta_classification_type": "U",
        "meta_norad_cat_id": 66657,
        "meta_element_set_no": 999,
        "meta_rev_at_epoch": 151,
        "meta_bstar": 0.00048630112,
        "meta_mean_motion_dot": 4.929e-05,
        "meta_mean_motion_ddot": 0,
        "tle_line1": "1 66657U 25274H   25340.77714823  .00004929  00000+0  48630-3 0  9990",
        "tle_line2": "2 66657  97.7389 268.0859 0010959 298.7939  61.2179 14.92399421  1511"
      },
      "geometry": {
        "type": "Point",
        "coordinates": [
          123.01830485313761,
          76.43986822219567
        ]
      }
    },
    {
      "type": "Feature",
      "properties": {
        "norad_id": 66658,
        "name": "2025-274J",
        "group": "last-30-days",
        "lat": 70.52678911990566,
        "lon": 111.31888621914213,
        "alt_km": 590.9594084802629,
        "timestamp": "2025-12-07T09:35:08.571925+00:00",
        "meta_object_name": "2025-274J",
        "meta_object_id": "2025-274J",
        "meta_epoch": "2025-12-06T18:37:23.200608",
        "meta_mean_motion": 14.92572861,
        "meta_eccentricity": 0.0011554,
        "meta_inclination": 97.7391,
        "meta_ra_of_asc_node": 268.087,
        "meta_arg_of_pericenter": 301.9626,
        "meta_mean_anomaly": 58.0469,
        "meta_ephemeris_type": 0,
        "meta_classification_type": "U",
        "meta_norad_cat_id": 66658,
        "meta_element_set_no": 999,
        "meta_rev_at_epoch": 151,
        "meta_bstar": 0.00047014759,
        "meta_mean_motion_dot": 4.785e-05,
        "meta_mean_motion_ddot": 0,
        "tle_line1": "1 66658U 25274J   25340.77596297  .00004785  00000+0  47015-3 0  9990",
        "tle_line2": "2 66658  97.7391 268.0870 0011554 301.9626  58.0469 14.92572861  1517"
      },
      "geometry": {
        "type": "Point",
        "coordinates": [
          111.31888621914213,
          70.52678911990566
        ]
      }
    },
    {
      "type": "Feature",
      "properties": {
        "norad_id": 66659,
        "name": "JACK K",
        "group": "last-30-days",
        "lat": 63.82303439502993,
        "lon": 104.76427931549225,
        "alt_km": 591.6145484925737,
        "timestamp": "2025-12-07T09:35:08.571935+00:00",
        "meta_object_name": "JACK K",
        "meta_object_id": "2025-274K",
        "meta_epoch": "2025-12-06T18:35:34.616544",
        "meta_mean_motion": 14.92758727,
        "meta_eccentricity": 0.00122721,
        "meta_inclination": 97.7393,
        "meta_ra_of_asc_node": 268.089,
        "meta_arg_of_pericenter": 303.0138,
        "meta_mean_anomaly": 56.9902,
        "meta_ephemeris_type": 0,
        "meta_classification_type": "U",
        "meta_norad_cat_id": 66659,
        "meta_element_set_no": 999,
        "meta_rev_at_epoch": 151,
        "meta_bstar": 0.00046843294,
        "meta_mean_motion_dot": 4.791e-05,
        "meta_mean_motion_ddot": 0,
        "tle_line1": "1 66659U 25274K   25340.77470621  .00004791  00000+0  46843-3 0  9998",
        "tle_line2": "2 66659  97.7393 268.0890 0012272 303.0138  56.9902 14.92758727  1517"
      },
      "geometry": {
        "type": "Point",
        "coordinates": [
          104.76427931549225,
          63.82303439502993
        ]
      }
    },
    {
      "type": "Feature",
      "properties": {
        "norad_id": 66660,
        "name": "K-HERO",
        "group": "last-30-days",
        "lat": 58.300792957478635,
        "lon": 101.42774951338701,
        "alt_km": 592.2604670321853,
        "timestamp": "2025-12-07T09:35:08.571947+00:00",
        "meta_object_name": "K-HERO",
        "meta_object_id": "2025-274L",
        "meta_epoch": "2025-12-06T18:34:07.333536",
        "meta_mean_motion": 14.92907232,
        "meta_eccentricity": 0.00129299,
        "meta_inclination": 97.7397,
        "meta_ra_of_asc_node": 268.0907,
        "meta_arg_of_pericenter": 303.6775,
        "meta_mean_anomaly": 56.3211,
        "meta_ephemeris_type": 0,
        "meta_classification_type": "U",
        "meta_norad_cat_id": 66660,
        "meta_element_set_no": 999,
        "meta_rev_at_epoch": 151,
        "meta_bstar": 0.00046203975,
        "meta_mean_motion_dot": 4.743e-05,
        "meta_mean_motion_ddot": 0,
        "tle_line1": "1 66660U 25274L   25340.77369599  .00004743  00000+0  46204-3 0  9999",
        "tle_line2": "2 66660  97.7397 268.0907 0012929 303.6775  56.3211 14.92907232  1518"
      },
      "geometry": {
        "type": "Point",
        "coordinates": [
          101.42774951338701,
          58.300792957478635
        ]
      }
    },
    {
      "type": "Feature",
      "properties": {
        "norad_id": 66661,
        "name": "SNUGLITE-III",
        "group": "last-30-days",
        "lat": 52.58597393693192,
        "lon": 98.9494982909979,
        "alt_km": 592.9033843520465,
        "timestamp": "2025-12-07T09:35:08.571957+00:00",
        "meta_object_name": "SNUGLITE-III",
        "meta_object_id": "2025-274M",
        "meta_epoch": "2025-12-06T18:32:37.955328",
        "meta_mean_motion": 14.93056475,
        "meta_eccentricity": 0.00135238,
        "meta_inclination": 97.7395,
        "meta_ra_of_asc_node": 268.0919,
        "meta_arg_of_pericenter": 304.5866,
        "meta_mean_anomaly": 55.4077,
        "meta_ephemeris_type": 0,
        "meta_classification_type": "U",
        "meta_norad_cat_id": 66661,
        "meta_element_set_no": 999,
        "meta_rev_at_epoch": 151,
        "meta_bstar": 0.00043653793,
        "meta_mean_motion_dot": 4.496e-05,
        "meta_mean_motion_ddot": 0,
        "tle_line1": "1 66661U 25274M   25340.77266152  .00004496  00000+0  43654-3 0  9992",
        "tle_line2": "2 66661  97.7395 268.0919 0013523 304.5866  55.4077 14.93056475  1517"
      },
      "geometry": {
        "type": "Point",
        "coordinates": [
          98.9494982909979,
          52.58597393693192
        ]
      }
    },
    {
      "type": "Feature",
      "properties": {
        "norad_id": 66662,
        "name": "2025-274N",
        "group": "last-30-days",
        "lat": 50.24460319869373,
        "lon": 98.11856533976747,
        "alt_km": 593.371975124639,
        "timestamp": "2025-12-07T09:35:08.571969+00:00",
        "meta_object_name": "2025-274N",
        "meta_object_id": "2025-274N",
        "meta_epoch": "2025-12-06T18:32:00.890592",
        "meta_mean_motion": 14.93103897,
        "meta_eccentricity": 0.00140226,
        "meta_inclination": 97.7392,
        "meta_ra_of_asc_node": 268.0924,
        "meta_arg_of_pericenter": 303.873,
        "meta_mean_anomaly": 56.1155,
        "meta_ephemeris_type": 0,
        "meta_classification_type": "U",
        "meta_norad_cat_id": 66662,
        "meta_element_set_no": 999,
        "meta_rev_at_epoch": 151,
        "meta_bstar": 0.00028819991,
        "meta_mean_motion_dot": 2.952e-05,
        "meta_mean_motion_ddot": 0,
        "tle_line1": "1 66662U 25274N   25340.77223253  .00002952  00000+0  28820-3 0  9991",
        "tle_line2": "2 66662  97.7392 268.0924 0014022 303.8730  56.1155 14.93103897  1514"
      },
      "geometry": {
        "type": "Point",
        "coordinates": [
          98.11856533976747,
          50.24460319869373
        ]
      }
    }
  ]
}